NORAD_CAT_ID,OBJECT_NAME,OBJECT_TYPE,EPOCH,MEAN_MOTION,ECCENTRICITY,INCLINATION,RA_OF_ASC_NODE,ARG_OF_PERICENTER,MEAN_ANOMALY,BSTAR,MEAN_MOTION_DOT,MEAN_MOTION_DDOT,TLE_LINE0,TLE_LINE1,TLE_LINE2,SEMIMAJOR_AXIS,PERIOD,APOGEE,PERIGEE,DECAYED
53833.0,STARLINK-4771,PAYLOAD,2024-05-03 07:25:24,15.08847942,0.000138,53.2169,95.8942,92.0834,268.0316,0.00012354,1.679e-05,0.0,0 STARLINK-4771,1 53833U 22114R   24124.30931050  .00001679  00000-0  12354-3 0  9997,2 53833  53.2169  95.8942 0001380  92.0834 268.0316 15.08847942 90334,6917.856,95.437,540.676,538.766,0.0
53833.0,STARLINK-4771,PAYLOAD,2024-05-03 15:22:21,15.08831842,0.0001763,53.217,94.409,81.8803,278.2389,-3.5338e-05,-8.5e-06,0.0,0 STARLINK-4771,1 53833U 22114R   24124.64052745 -.00000850  00000-0 -35338-4 0  9999,2 53833  53.2170  94.4090 0001763  81.8803 278.2389 15.08831842 90382,6917.905,95.438,540.99,538.551,0.0
53833.0,STARLINK-4771,PAYLOAD,2024-05-05 03:56:13,15.08840389,0.0001279,53.2172,87.5683,87.1139,272.9999,6.0048e-05,6.68e-06,0.0,0 STARLINK-4771,1 53833U 22114R   24126.16404437  .00000668  00000-0  60048-4 0  9998,2 53833  53.2172  87.5683 0001279  87.1139 272.9999 15.08840389 90618,6917.879,95.438,540.629,538.859,0.0
53833.0,STARLINK-4771,PAYLOAD,2024-05-05 07:06:59,15.08847511,0.000137,53.2177,86.973,86.3298,273.7851,1.055e-06,-2.71e-06,0.0,0 STARLINK-4771,1 53833U 22114R   24126.29652244 -.00000271  00000-0  10550-5 0  9998,2 53833  53.2177  86.9730 0001370  86.3298 273.7851 15.08847511 91170,6917.857,95.437,540.67,538.775,0.0
53833.0,STARLINK-4771,PAYLOAD,2024-05-06 03:46:59,15.08850593,0.000146,53.2175,83.1081,82.823,277.2929,0.00025098,3.71e-05,0.0,0 STARLINK-4771,1 53833U 22114R   24127.15763360  .00003710  00000-0  25098-3 0  9997,2 53833  53.2175  83.1081 0001460  82.8230 277.2929 15.08850593 90766,6917.848,95.437,540.723,538.703,0.0
53833.0,STARLINK-4771,PAYLOAD,2024-05-07 03:37:46,15.0885219,0.0001412,53.2175,78.6483,95.5859,264.5295,5.9016e-05,6.52e-06,0.0,0 STARLINK-4771,1 53833U 22114R   24128.15123462  .00000652  00000-0  59016-4 0  9991,2 53833  53.2175  78.6483 0001412  95.5859 264.5295 15.08852190 90913,6917.843,95.437,540.685,538.731,0.0
53833.0,STARLINK-4771,PAYLOAD,2024-05-07 13:10:05,15.08843816,0.0001656,53.2175,76.8618,72.2358,287.8815,-6.4418e-06,-3.91e-06,0.0,0 STARLINK-4771,1 53833U 22114R   24128.54868037 -.00000391  00000-0 -64418-5 0  9993,2 53833  53.2175  76.8618 0001656  72.2358 287.8815 15.08843816 90976,6917.869,95.437,540.879,538.588,0.0
53833.0,STARLINK-4771,PAYLOAD,2024-05-07 21:07:02,15.08836044,0.0001797,53.2185,75.3807,96.4374,263.6823,-0.00018215,-3.186e-05,0.0,0 STARLINK-4771,1 53833U 22114R   24128.87989095 -.00003186  00000-0 -18215-3 0  9994,2 53833  53.2185  75.3807 0001797  96.4374 263.6823 15.08836044 91026,6917.892,95.438,541.001,538.514,0.0
53833.0,STARLINK-4771,PAYLOAD,2024-05-08 13:00:53,15.08834925,0.000146,53.2179,72.4054,109.5093,250.6057,-3.8992e-05,-9.08e-06,0.0,0 STARLINK-4771,1 53833U 22114R   24129.54228955 -.00000908  00000-0 -38992-4 0  9994,2 53833  53.2179  72.4054 0001460 109.5093 250.6057 15.08834925 91663,6917.896,95.438,540.771,538.751,0.0
53833.0,STARLINK-4771,PAYLOAD,2024-05-09 04:54:43,15.0885558,0.0001245,53.2166,69.4307,93.125,266.9885,0.00014199,1.974e-05,0.0,0 STARLINK-4771,1 53833U 22114R   24130.20467300  .00001974  00000-0  14199-3 0  9992,2 53833  53.2166  69.4307 0001245  93.1250 266.9885 15.08855580 91221,6917.833,95.437,540.559,538.836,0.0
53833.0,STARLINK-4771,PAYLOAD,2024-05-09 12:51:39,15.0885219,0.0001201,53.2167,67.9446,91.0116,269.1014,8.6978e-05,1.097e-05,0.0,0 STARLINK-4771,1 53833U 22114R   24130.53587475  .00001097  00000-0  86978-4 0  9995,2 53833  53.2167  67.9446 0001201  91.0116 269.1014 15.08852190 91817,6917.843,95.437,540.539,538.877,0.0
53833.0,STARLINK-4771,PAYLOAD,2024-05-10 01:34:46,15.08827647,0.0001465,53.2172,65.5672,81.4112,278.7046,0.00015146,2.123e-05,0.0,0 STARLINK-4771,1 53833U 22114R   24131.06581408  .00002123  00000-0  15146-3 0  9993,2 53833  53.2172  65.5672 0001465  81.4112 278.7046 15.08827647 91358,6917.918,95.438,540.797,538.77,0.0
53833.0,STARLINK-4771,PAYLOAD,2024-05-10 12:42:28,15.08837551,0.0001118,53.2159,63.4832,92.3356,267.7765,0.00012454,1.695e-05,0.0,0 STARLINK-4771,1 53833U 22114R   24131.52949079  .00001695  00000-0  12454-3 0  9998,2 53833  53.2159  63.4832 0001118  92.3356 267.7765 15.08837551 91423,6917.888,95.438,540.526,538.979,0.0
53833.0,STARLINK-4771,PAYLOAD,2024-05-11 03:00:55,15.08853781,0.0001379,53.2167,60.8085,94.323,265.792,0.00010084,1.318e-05,0.0,0 STARLINK-4771,1 53833U 22114R   24132.12563659  .00001318  00000-0  10084-3 0  9990,2 53833  53.2167  60.8085 0001379  94.3230 265.7920 15.08853781 91519,6917.838,95.437,540.657,538.749,0.0
53833.0,STARLINK-4771,PAYLOAD,2024-05-11 12:33:13,15.08855111,0.0001389,53.217,59.0237,86.0643,274.0508,0.00011415,1.53e-05,0.0,0 STARLINK-4771,1 53833U 22114R   24132.52307053  .00001530  00000-0  11415-3 0  9993,2 53833  53.2170  59.0237 0001389  86.0643 274.0508 15.08855111 92110,6917.834,95.437,540.66,538.738,0.0
53833.0,STARLINK-4771,PAYLOAD,2024-05-12 01:16:21,15.0876903,0.0002447,53.2183,56.6458,40.6643,319.4532,-0.001493,-0.00023926,0.0,0 STARLINK-4771,1 53833U 22114R   24133.05302359 -.00023926  00000-0 -14930-2 0  9995,2 53833  53.2183  56.6458 0002447  40.6643 319.4532 15.08769030 91657,6918.097,95.442,541.655,538.269,0.0
53833.0,STARLINK-4771,PAYLOAD,2024-05-12 12:24:05,15.08737766,0.0001936,53.2181,54.5664,67.6362,292.4835,-0.0016768,-0.00026802,0.0,0 STARLINK-4771,1 53833U 22114R   24133.51673532 -.00026802  00000-0 -16768-2 0  9997,2 53833  53.2181  54.5664 0001936  67.6362 292.4835 15.08737766 91725,6918.193,95.444,541.397,538.719,0.0
53833.0,STARLINK-4771,PAYLOAD,2024-05-12 21:56:24,15.08792825,0.0001312,53.2186,52.7812,56.4469,303.6648,-0.00033443,-5.599e-05,0.0,0 STARLINK-4771,1 53833U 22114R   24133.91417043 -.00005599  00000-0 -33443-3 0  9994,2 53833  53.2186  52.7812 0001312  56.4469 303.6648 15.08792825 91787,6918.025,95.441,540.797,538.982,0.0
53833.0,STARLINK-4771,PAYLOAD,2024-05-13 04:17:56,15.08813026,0.0001315,53.2174,51.5899,96.0349,264.0793,0.00037032,5.606e-05,0.0,0 STARLINK-4771,1 53833U 22114R   24134.17912848  .00005606  00000-0  37032-3 0  9991,2 53833  53.2174  51.5899 0001315  96.0349 264.0793 15.08813026 91829,6917.963,95.439,540.738,538.918,0.0
53833.0,STARLINK-4771,PAYLOAD,2024-05-13 18:36:25,15.08834307,0.0001214,53.2181,48.9174,91.4122,268.7009,0.00076893,0.00011969,0.0,0 STARLINK-4771,1 53833U 22114R   24134.77528962  .00011969  00000-0  76893-3 0  9994,2 53833  53.2181  48.9174 0001214  91.4122 268.7009 15.08834307 91915,6917.898,95.438,540.603,538.923,0.0
53833.0,STARLINK-4771,PAYLOAD,2024-05-14 04:08:43,15.0883969,0.0001395,53.2168,47.1308,66.5332,293.5807,0.0014826,0.00023386,0.0,0 STARLINK-4771,1 53833U 22114R   24135.17272886  .00023386  00000-0  14826-2 0  9993,2 53833  53.2168  47.1308 0001395  66.5332 293.5807 15.08839690 92515,6917.881,95.438,540.711,538.781,0.0
53833.0,STARLINK-4771,PAYLOAD,2024-05-14 21:37:56,15.08877353,0.0001463,53.2176,43.8557,97.6655,262.4503,0.00060809,9.413e-05,0.0,0 STARLINK-4771,1 53833U 22114R   24135.90134489  .00009413  00000-0  60809-3 0  9998,2 53833  53.2176  43.8557 0001463  97.6655 262.4503 15.08877353 92620,6917.766,95.435,540.643,538.619,0.0
53833.0,STARLINK-4771,PAYLOAD,2024-05-15 00:48:41,15.08885127,0.0001016,53.2173,43.2638,85.4673,274.6435,0.00068593,0.00010659,0.0,0 STARLINK-4771,1 53833U 22114R   24136.03381905  .00010659  00000-0  68593-3 0  9992,2 53833  53.2173  43.2638 0001016  85.4673 274.6435 15.08885127 92100,6917.742,95.435,540.31,538.905,0.0
53833.0,STARLINK-4771,PAYLOAD,2024-05-15 10:20:59,15.08893459,5.44e-05,53.2193,41.4816,65.2056,294.8993,0.0004795,7.363e-05,0.0,0 STARLINK-4771,1 53833U 22114R   24136.43124391  .00007363  00000-0  47950-3 0  9992,2 53833  53.2193  41.4816 0000544  65.2056 294.8993 15.08893459 92702,6917.717,95.434,539.958,539.206,0.0
53833.0,STARLINK-4771,PAYLOAD,2024-05-15 21:28:41,15.08853318,0.0001549,53.2178,39.3957,68.1816,291.9341,-0.00039494,-6.57e-05,0.0,0 STARLINK-4771,1 53833U 22114R   24136.89492996 -.00006570  00000-0 -39494-3 0  9996,2 53833  53.2178  39.3957 0001549  68.1816 291.9341 15.08853318 92232,6917.84,95.437,540.776,538.633,0.0
53833.0,STARLINK-4771,PAYLOAD,2024-05-16 00:39:27,15.08871694,0.0001238,53.2178,38.801,62.9372,297.1746,8.1479e-05,1.01e-05,0.0,0 STARLINK-4771,1 53833U 22114R   24137.02740299  .00001010  00000-0  81479-4 0  9997,2 53833  53.2178  38.8010 0001238  62.9372 297.1746 15.08871694 92256,6917.784,95.436,540.505,538.792,0.0
53833.0,STARLINK-4771,PAYLOAD,2024-05-16 10:11:46,15.08854873,0.0001403,53.2174,37.0168,66.356,293.7579,-0.00014238,-2.554e-05,0.0,0 STARLINK-4771,1 53833U 22114R   24137.42484491 -.00002554  00000-0 -14238-3 0  9994,2 53833  53.2174  37.0168 0001403  66.3560 293.7579 15.08854873 92311,6917.835,95.437,540.671,538.729,0.0
53833.0,STARLINK-4771,PAYLOAD,2024-05-17 10:02:33,15.08845732,0.0001418,53.2174,32.5578,71.1037,289.0109,9.6752e-05,1.252e-05,0.0,0 STARLINK-4771,1 53833U 22114R   24138.41844442  .00001252  00000-0  96752-4 0  9994,2 53833  53.2174  32.5578 0001418  71.1037 289.0109 15.08845732 92462,6917.863,95.437,540.709,538.747,0.0
53833.0,STARLINK-4771,PAYLOAD,2024-05-17 22:45:39,15.08813894,0.0001724,53.2177,30.1785,72.7015,287.4166,-0.00041326,-6.854e-05,0.0,0 STARLINK-4771,1 53833U 22114R   24138.94837944 -.00006854  00000-0 -41326-3 0  9992,2 53833  53.2177  30.1785 0001724  72.7015 287.4166 15.08813894 93080,6917.96,95.439,541.018,538.633,0.0
53833.0,STARLINK-4771,PAYLOAD,2024-05-18 01:56:25,15.08828475,0.0001593,53.2178,29.5835,90.103,270.0145,-8.4519e-06,-4.22e-06,0.0,0 STARLINK-4771,1 53833U 22114R   24139.08085471 -.00000422  00000-0 -84519-5 0  9996,2 53833  53.2178  29.5835 0001593  90.1030 270.0145 15.08828475 92562,6917.916,95.438,540.883,538.679,0.0
